ONEWEB-0324             
1 49193U 21083H   22044.25001157 -.00033497  00000-0 -85289-1 0  9994
2 49193  87.9103 290.4951 0002222  72.2779  23.2234 13.18702862 22398
ONEWEB-0325             
1 49194U 21083J   22044.25001157 -.00033195  00000-0 -84521-1 0  9998
2 49194  87.9101 290.3834 0002223 110.6935 330.1798 13.18700218 22408
ONEWEB-0326             
1 49195U 21083K   22044.25001157 -.00031694  00000-0 -80685-1 0  9998
2 49195  87.9107 290.4777 0002096  81.9741 307.4409 13.18702384 22395
ONEWEB-0327             
1 49196U 21083L   22043.91667824 -.00013259  00000-0 -33712-1 0  9996
2 49196  87.9116 290.4999 0002617  60.7391 260.6269 13.18689652  3303
ONEWEB-0328             
1 49197U 21083M   22044.25001157 -.01471685  00000-0 -57840+0 0  9994
2 49197  87.6476 276.5709 0020874 121.2294  34.7281 14.32750187 23859
ONEWEB-0331             
1 49198U 21083N   22044.25001157 -.00032230  00000-0 -82053-1 0  9999
2 49198  87.9116 290.4793 0002061  74.2636 337.1823 13.18701890 22409
ONEWEB-0333             
1 49199U 21083P   22043.91667824 -.01411450  00000-0 -51935+0 0  9990
2 49199  87.6423 276.6753 0018751 123.2142 228.9819 14.35976129  3545
ONEWEB-0334             
1 49200U 21083Q   22044.25001157 -.00058674  00000-0 -61853-2 0  9999
2 49200  87.1997 274.4690 0004939  64.4860 219.8732 14.89758455 23949
ONEWEB-0335             
1 49201U 21083R   22043.91667824 -.01398970  00000-0 -52095+0 0  9993
2 49201  87.6431 276.7035 0021753 114.2653 326.8372 14.35306844  3537
ONEWEB-0336             
1 49202U 21083S   22043.91667824 -.01405997  00000-0 -52658+0 0  9997
2 49202  87.6435 276.6630 0021423 109.2091  50.1710 14.35037299  3545
ONEWEB-0337             
1 49203U 21083T   22044.25001157 -.01467674  00000-0 -55243+0 0  9990
2 49203  87.6355 276.5673 0023046 113.9042  36.8541 14.34911553 23856
ONEWEB-0338             
1 49204U 21083U   22044.25001157 -.00058770  00000-0 -61930-2 0  9996
2 49204  87.2056 274.5801 0005309  85.6847  93.9027 14.89773531 23947
ONEWEB-0339             
1 49205U 21083V   22043.91667824 -.01409239  00000-0 -52728+0 0  9991
2 49205  87.6458 276.6553 0020908 117.3381  92.2908 14.35100641  3544
ONEWEB-0340             
1 49206U 21083W   22044.25001157 -.00033877  00000-0 -86258-1 0  9998
2 49206  87.9106 290.4868 0001971  84.2264  25.9745 13.18703283 22377
ONEWEB-0341             
1 49207U 21083X   22044.25001157 -.00032986  00000-0 -83982-1 0  9990
2 49207  87.9126 290.3785 0002643 103.1450 330.3183 13.18703290 22391
ONEWEB-0342             
1 49208U 21083Y   22044.25001157 -.00056932  00000-0 -59962-2 0  9990
2 49208  87.2020 274.5093 0005502  85.4810 257.7759 14.89783484 23948
ONEWEB-0343             
1 49209U 21083Z   22044.25001157 -.00033350  00000-0 -84913-1 0  9993
2 49209  87.9117 290.4340 0002598 115.0723 333.0700 13.18703110 22447
ONEWEB-0344             
1 49210U 21083AA  22044.58334491 -.01383632  00000-0 -54154+0 0  9995
2 49210  87.6481 276.4671 0021775 109.4279 168.0733 14.32740288 23898
ONEWEB-0345             
1 49211U 21083AB  22043.91667824 -.01389038  00000-0 -52274+0 0  9998
2 49211  87.6477 276.6874 0021556 112.2041 344.7213 14.34751037  3549
ONEWEB-0346             
1 49212U 21083AC  22044.25001157 -.00032494  00000-0 -82724-1 0  9993
2 49212  87.9116 290.4289 0002246  69.8479 348.8784 13.18705107 22383
ONEWEB-0348             
1 49213U 21083AD  22044.25001157 -.00058120  00000-0 -61253-2 0  9993
2 49213  87.2044 274.5577 0005143  78.7622 226.4528 14.89765065 23946
ONEWEB-0350             
1 49214U 21083AE  22044.58334491 -.01348898  00000-0 -49805+0 0  9991
2 49214  87.6473 276.4587 0019306 115.8899 114.6043 14.36217301 23907
ONEWEB-0351             
1 49215U 21083AF  22044.25001157 -.00056442  00000-0 -59475-2 0  9993
2 49215  87.1974 274.4288 0004757  70.3813   2.3163 14.89764422 23950
ONEWEB-0352             
1 49216U 21083AG  22043.91667824 -.00849491  00000-0 -15697+0 0  9994
2 49216  87.5920 276.4709 0020544 112.6658 353.7969 14.68262075  3549
ONEWEB-0354             
1 49217U 21083AH  22043.91667824  .00013668  00000-0  14233-2 0  9990
2 49217  87.2030 274.6346 0004064  75.7714 259.6453 14.89732528  3569
ONEWEB-0355             
1 49218U 21083AJ  22043.91667824 -.01414238  00000-0 -54020+0 0  9997
2 49218  87.6412 276.6523 0019973 121.0452 106.6774 14.34075193  3538
ONEWEB-0357             
1 49219U 21083AK  22044.25001157 -.00058036  00000-0 -61140-2 0  9990
2 49219  87.2023 274.5162 0005629  87.8741 171.5454 14.89779000 23943
ONEWEB-0332             
1 49279U 21090A   22043.91667824  .00051765  00000-0  55284-2 0  9997
2 49279  87.2406 250.5845 0001673 212.5288 220.1493 14.88553957  3564
ONEWEB-0347             
1 49280U 21090B   22044.58334491 -.00005301  00000-0 -57464-3 0  9994
2 49280  87.2201 250.4025 0002084 134.6110 306.0083 14.88519633 18291
ONEWEB-0349             
1 49281U 21090C   22044.58334491 -.00006454  00000-0 -65567-3 0  9998
2 49281  87.2013 250.2553 0002250 157.7686 334.9480 14.91106180 19617
ONEWEB-0353             
1 49282U 21090D   22044.58334491 -.00005405  00000-0 -58762-3 0  9993
2 49282  87.2520 250.3607 0003233 156.6168 254.9111 14.88395430 19589
ONEWEB-0356             
1 49283U 21090E   22044.58334491 -.00008753  00000-0 -88912-3 0  9993
2 49283  87.2010 250.2613 0001609 155.0789 106.0340 14.91077915 19611
ONEWEB-0358             
1 49284U 21090F   22044.58334491 -.00005423  00000-0 -58726-3 0  9995
2 49284  87.2514 250.3485 0001822 122.4976 285.4177 14.88550104 19580
ONEWEB-0359             
1 49285U 21090G   22044.25001157 -.00049819  00000-0 -54063-2 0  9996
2 49285  87.2184 250.5186 0001991 129.4928  33.5532 14.88547631 19527
ONEWEB-0360             
1 49286U 21090H   22044.58334491 -.00008363  00000-0 -84958-3 0  9999
2 49286  87.2019 250.2740 0003122 231.7085   8.4557 14.91076275 19610
ONEWEB-0361             
1 49287U 21090J   22044.58334491 -.00008123  00000-0 -82470-3 0  9991
2 49287  87.2016 250.2648 0001683 166.5096 166.2232 14.91106881 19612
ONEWEB-0362             
1 49288U 21090K   22044.58334491  .00000013  00000-0  00000+0 0  9995
2 49288  87.9286 259.9198 0001631  80.3759 163.4598 13.20349654 18720
ONEWEB-0363             
1 49289U 21090L   22044.58334491 -.00007897  00000-0 -80243-3 0  9996
2 49289  87.2033 250.2989 0003116 129.5469  89.8767 14.91073633 19618
ONEWEB-0364             
1 49290U 21090M   22044.58334491 -.00006393  00000-0 -69219-3 0  9998
2 49290  87.2554 250.4243 0001931 136.4207   3.4015 14.88537181 19575
ONEWEB-0365             
1 49291U 21090N   22044.58334491  .00010832  00000-0  26871-1 0  9995
2 49291  87.9246 259.9020 0001067 109.9682 101.8827 13.20031170 18700
ONEWEB-0366             
1 49292U 21090P   22044.58334491 -.00006938  00000-0 -75285-3 0  9995
2 49292  87.2533 250.3814 0001732 159.7155 195.3220 14.88432656 19587
ONEWEB-0367             
1 49293U 21090Q   22044.58334491 -.00007444  00000-0 -75580-3 0  9997
2 49293  87.2053 250.3299 0002222 222.5556 335.3508 14.91113133 19610
ONEWEB-0368             
1 49294U 21090R   22044.58334491  .00050297  00000-0  53738-2 0  9990
2 49294  87.2578 250.4504 0001491 206.3621   6.3068 14.88545306 19582
ONEWEB-0369             
1 49295U 21090S   22044.50001157  .00046884  00000-0  11613+0 0  9993
2 49295  87.9219 259.8707 0002367  79.6861 111.2108 13.19925538 18683
ONEWEB-0370             
1 49296U 21090T   22044.58334491 -.00007775  00000-0 -79009-3 0  9997
2 49296  87.1998 250.2358 0001137 168.8310 175.7357 14.91073810 19636
ONEWEB-0371             
1 49297U 21090U   22044.58334491  .00010631  00000-0  26491-1 0  9996
2 49297  87.9248 259.7980 0001766  91.8552 107.4025 13.19728686 18730
ONEWEB-0372             
1 49298U 21090V   22044.58334491 -.00005895  00000-0 -59917-3 0  9996
2 49298  87.2004 250.2375 0002635 238.5299 224.3203 14.91101966 19614
ONEWEB-0373             
1 49299U 21090W   22044.58334491 -.00008506  00000-0 -92088-3 0  9995
2 49299  87.2532 250.3852 0001447 205.5514  97.7981 14.88509743 19588
ONEWEB-0374             
1 49300U 21090X   22044.58334491 -.00005741  00000-0 -62197-3 0  9994
2 49300  87.2561 250.4319 0000680 210.1871 175.2138 14.88524692 19562
ONEWEB-0375             
1 49301U 21090Y   22044.58334491 -.00005629  00000-0 -60963-3 0  9999
2 49301  87.2488 250.3499 0001406 187.6960 266.1752 14.88543201 19584
ONEWEB-0376             
1 49302U 21090Z   22044.58334491  .00059599  00000-0  13440+0 0  9997
2 49302  87.9461 259.8589 0001477  92.9479 220.7220 13.26135731 18725
ONEWEB-0377             
1 49303U 21090AA  22044.58334491 -.00006730  00000-0 -72848-3 0  9990
2 49303  87.2555 250.4286 0002734 127.2763  31.3592 14.88538900 19564
ONEWEB-0378             
1 49304U 21090AB  22044.58334491 -.00007181  00000-0 -72953-3 0  9999
2 49304  87.1957 250.1702 0002102 207.9846 314.8558 14.91094224 19658
ONEWEB-0379             
1 49305U 21090AC  22044.58334491 -.00007286  00000-0 -78824-3 0  9999
2 49305  87.2548 250.4034 0000583 125.8408  59.5583 14.88550156 19580
ONEWEB-0380             
1 49306U 21090AD  22044.58334491  .00010807  00000-0  26812-1 0  9999
2 49306  87.9253 259.8800 0001287  94.7661 123.4547 13.20024738 18703
ONEWEB-0381             
1 49307U 21090AE  22044.58334491 -.00008648  00000-0 -87768-3 0  9991
2 49307  87.2045 250.3048 0001447 143.9302 164.2647 14.91115472 19613
ONEWEB-0382             
1 49308U 21090AF  22044.58334491 -.00008804  00000-0 -89448-3 0  9993
2 49308  87.1995 250.2106 0001890 158.3946 100.1041 14.91071962 19631
ONEWEB-0383             
1 49309U 21090AG  22043.91667824  .00052874  00000-0  56304-2 0  9997
2 49309  87.2426 250.6163 0001134 184.3284 338.7221 14.88666285  3562
ONEWEB-0384             
1 49310U 21090AH  22044.58334491 -.00008512  00000-0 -86463-3 0  9996
2 49310  87.1987 250.2182 0001167 172.7632  70.5765 14.91080840 19625
